[{"OBJECT_NAME":"STARLINK-4267","OBJECT_ID":"2022-062AL","EPOCH":"2026-03-20T22:20:27.789216","MEAN_MOTION":15.08837083,"ECCENTRICITY":0.00012243,"INCLINATION":53.2185,"RA_OF_ASC_NODE":333.658,"ARG_OF_PERICENTER":90.1533,"MEAN_ANOMALY":269.9599,"EPHEMERIS_TYPE":0,"CLASSIFICATION_TYPE":"U","NORAD_CAT_ID":52864,"ELEMENT_SET_NO":999,"REV_AT_EPOCH":20762,"BSTAR":6.4641079e-5,"MEAN_MOTION_DOT":7.41e-6,"MEAN_MOTION_DDOT":0},{"OBJECT_NAME":"STARLINK-4274","OBJECT_ID":"2022-062AM","EPOCH":"2026-03-20T23:34:38.948736","MEAN_MOTION":15.08833783,"ECCENTRICITY":0.00012907,"INCLINATION":53.2184,"RA_OF_ASC_NODE":333.4288,"ARG_OF_PERICENTER":83.4251,"MEAN_ANOMALY":276.6888,"EPHEMERIS_TYPE":0,"CLASSIFICATION_TYPE":"U","NORAD_CAT_ID":52865,"ELEMENT_SET_NO":999,"REV_AT_EPOCH":20763,"BSTAR":5.5855794e-5,"MEAN_MOTION_DOT":6.01e-6,"MEAN_MOTION_DDOT":0},{"OBJECT_NAME":"STARLINK-4272","OBJECT_ID":"2022-062AN","EPOCH":"2026-03-20T22:09:52.140096","MEAN_MOTION":15.08836052,"ECCENTRICITY":0.0001489,"INCLINATION":53.2189,"RA_OF_ASC_NODE":333.691,"ARG_OF_PERICENTER":95.0817,"MEAN_ANOMALY":265.0345,"EPHEMERIS_TYPE":0,"CLASSIFICATION_TYPE":"U","NORAD_CAT_ID":52866,"ELEMENT_SET_NO":999,"REV_AT_EPOCH":20762,"BSTAR":-2.171426e-6,"MEAN_MOTION_DOT":-3.23e-6,"MEAN_MOTION_DDOT":0},{"OBJECT_NAME":"STARLINK-4126","OBJECT_ID":"2022-062AP","EPOCH":"2026-03-20T23:24:03.472416","MEAN_MOTION":15.08841463,"ECCENTRICITY":0.00015875,"INCLINATION":53.2179,"RA_OF_ASC_NODE":333.4609,"ARG_OF_PERICENTER":86.6392,"MEAN_ANOMALY":273.4782,"EPHEMERIS_TYPE":0,"CLASSIFICATION_TYPE":"U","NORAD_CAT_ID":52867,"ELEMENT_SET_NO":999,"REV_AT_EPOCH":20763,"BSTAR":5.6230876e-5,"MEAN_MOTION_DOT":6.07e-6,"MEAN_MOTION_DDOT":0},{"OBJECT_NAME":"STARLINK-4261","OBJECT_ID":"2022-062AQ","EPOCH":"2026-03-20T22:04:34.335840","MEAN_MOTION":15.08837792,"ECCENTRICITY":0.00014087,"INCLINATION":53.2195,"RA_OF_ASC_NODE":333.7371,"ARG_OF_PERICENTER":92.1785,"MEAN_ANOMALY":267.9368,"EPHEMERIS_TYPE":0,"CLASSIFICATION_TYPE":"U","NORAD_CAT_ID":52868,"ELEMENT_SET_NO":999,"REV_AT_EPOCH":20762,"BSTAR":2.2229897e-5,"MEAN_MOTION_DOT":6.6e-7,"MEAN_MOTION_DDOT":0},{"OBJECT_NAME":"STARLINK-4266","OBJECT_ID":"2022-062AR","EPOCH":"2026-03-20T23:14:47.058144","MEAN_MOTION":15.08838849,"ECCENTRICITY":0.00013949,"INCLINATION":53.2191,"RA_OF_ASC_NODE":323.4893,"ARG_OF_PERICENTER":92.1554,"MEAN_ANOMALY":267.9598,"EPHEMERIS_TYPE":0,"CLASSIFICATION_TYPE":"U","NORAD_CAT_ID":52869,"ELEMENT_SET_NO":999,"REV_AT_EPOCH":20776,"BSTAR":7.3066245e-5,"MEAN_MOTION_DOT":8.75e-6,"MEAN_MOTION_DDOT":0},{"OBJECT_NAME":"STARLINK-4207","OBJECT_ID":"2022-062AT","EPOCH":"2026-03-20T22:58:53.154624","MEAN_MOTION":15.08828183,"ECCENTRICITY":0.0001274,"INCLINATION":53.2181,"RA_OF_ASC_NODE":323.5391,"ARG_OF_PERICENTER":92.9976,"MEAN_ANOMALY":267.1162,"EPHEMERIS_TYPE":0,"CLASSIFICATION_TYPE":"U","NORAD_CAT_ID":52871,"ELEMENT_SET_NO":999,"REV_AT_EPOCH":20776,"BSTAR":0.00010547247,"MEAN_MOTION_DOT":1.391e-5,"MEAN_MOTION_DDOT":0},{"OBJECT_NAME":"STARLINK-4213","OBJECT_ID":"2022-062AU","EPOCH":"2026-03-20T23:05:33.361152","MEAN_MOTION":15.08838149,"ECCENTRICITY":0.00016986,"INCLINATION":53.2185,"RA_OF_ASC_NODE":323.49,"ARG_OF_PERICENTER":90.7072,"MEAN_ANOMALY":269.4115,"EPHEMERIS_TYPE":0,"CLASSIFICATION_TYPE":"U","NORAD_CAT_ID":52872,"ELEMENT_SET_NO":999,"REV_AT_EPOCH":20776,"BSTAR":5.5675474e-5,"MEAN_MOTION_DOT":5.98e-6,"MEAN_MOTION_DDOT":0},{"OBJECT_NAME":"STARLINK-4211","OBJECT_ID":"2022-062AV","EPOCH":"2026-03-20T22:48:17.049312","MEAN_MOTION":15.08842009,"ECCENTRICITY":0.00013369,"INCLINATION":53.2181,"RA_OF_ASC_NODE":323.5719,"ARG_OF_PERICENTER":88.7075,"MEAN_ANOMALY":271.407,"EPHEMERIS_TYPE":0,"CLASSIFICATION_TYPE":"U","NORAD_CAT_ID":52873,"ELEMENT_SET_NO":999,"REV_AT_EPOCH":20776,"BSTAR":7.051946e-5,"MEAN_MOTION_DOT":8.35e-6,"MEAN_MOTION_DDOT":0},{"OBJECT_NAME":"STARLINK-4193","OBJECT_ID":"2022-062AX","EPOCH":"2026-03-20T22:42:59.686560","MEAN_MOTION":15.08854924,"ECCENTRICITY":0.00012923,"INCLINATION":53.218,"RA_OF_ASC_NODE":323.5877,"ARG_OF_PERICENTER":85.6151,"MEAN_ANOMALY":274.4989,"EPHEMERIS_TYPE":0,"CLASSIFICATION_TYPE":"U","NORAD_CAT_ID":52875,"ELEMENT_SET_NO":999,"REV_AT_EPOCH":20776,"BSTAR":0.00018093363,"MEAN_MOTION_DOT":2.594e-5,"MEAN_MOTION_DDOT":0},{"OBJECT_NAME":"STARLINK-4200","OBJECT_ID":"2022-062AY","EPOCH":"2026-03-20T22:53:35.092032","MEAN_MOTION":15.08841655,"ECCENTRICITY":0.00012769,"INCLINATION":53.2182,"RA_OF_ASC_NODE":323.5552,"ARG_OF_PERICENTER":86.5316,"MEAN_ANOMALY":273.5822,"EPHEMERIS_TYPE":0,"CLASSIFICATION_TYPE":"U","NORAD_CAT_ID":52876,"ELEMENT_SET_NO":999,"REV_AT_EPOCH":20776,"BSTAR":0.00016952294,"MEAN_MOTION_DOT":2.411e-5,"MEAN_MOTION_DDOT":0},{"OBJECT_NAME":"STARLINK-4214","OBJECT_ID":"2022-062AZ","EPOCH":"2026-03-20T22:05:54.032064","MEAN_MOTION":15.08839455,"ECCENTRICITY":0.0001395,"INCLINATION":53.218,"RA_OF_ASC_NODE":323.7167,"ARG_OF_PERICENTER":92.1134,"MEAN_ANOMALY":268.0018,"EPHEMERIS_TYPE":0,"CLASSIFICATION_TYPE":"U","NORAD_CAT_ID":52877,"ELEMENT_SET_NO":999,"REV_AT_EPOCH":20776,"BSTAR":1.4459268e-5,"MEAN_MOTION_DOT":-5.8e-7,"MEAN_MOTION_DDOT":0},{"OBJECT_NAME":"STARLINK-4171","OBJECT_ID":"2022-062BA","EPOCH":"2026-03-20T22:37:41.880576","MEAN_MOTION":15.08825063,"ECCENTRICITY":0.00012138,"INCLINATION":53.2181,"RA_OF_ASC_NODE":323.6038,"ARG_OF_PERICENTER":82.1521,"MEAN_ANOMALY":277.9608,"EPHEMERIS_TYPE":0,"CLASSIFICATION_TYPE":"U","NORAD_CAT_ID":52878,"ELEMENT_SET_NO":999,"REV_AT_EPOCH":20776,"BSTAR":7.8537473e-5,"MEAN_MOTION_DOT":9.62e-6,"MEAN_MOTION_DDOT":0},{"OBJECT_NAME":"STARLINK-4139","OBJECT_ID":"2022-062BB","EPOCH":"2026-03-20T23:25:23.331936","MEAN_MOTION":15.08833522,"ECCENTRICITY":0.00013929,"INCLINATION":53.2187,"RA_OF_ASC_NODE":323.4561,"ARG_OF_PERICENTER":90.2713,"MEAN_ANOMALY":269.8439,"EPHEMERIS_TYPE":0,"CLASSIFICATION_TYPE":"U","NORAD_CAT_ID":52879,"ELEMENT_SET_NO":999,"REV_AT_EPOCH":20777,"BSTAR":5.600579e-5,"MEAN_MOTION_DOT":6.03e-6,"MEAN_MOTION_DDOT":0},{"OBJECT_NAME":"STARLINK-4186","OBJECT_ID":"2022-062BC","EPOCH":"2026-03-20T21:55:17.723712","MEAN_MOTION":15.08834924,"ECCENTRICITY":0.00013781,"INCLINATION":53.2177,"RA_OF_ASC_NODE":323.7403,"ARG_OF_PERICENTER":90.3929,"MEAN_ANOMALY":269.7221,"EPHEMERIS_TYPE":0,"CLASSIFICATION_TYPE":"U","NORAD_CAT_ID":52880,"ELEMENT_SET_NO":999,"REV_AT_EPOCH":20776,"BSTAR":0.00011476567,"MEAN_MOTION_DOT":1.539e-5,"MEAN_MOTION_DDOT":0},{"OBJECT_NAME":"STARLINK-4181","OBJECT_ID":"2022-062BE","EPOCH":"2026-03-20T22:21:43.477344","MEAN_MOTION":15.08844505,"ECCENTRICITY":0.00015624,"INCLINATION":53.2179,"RA_OF_ASC_NODE":323.228,"ARG_OF_PERICENTER":85.0651,"MEAN_ANOMALY":275.0519,"EPHEMERIS_TYPE":0,"CLASSIFICATION_TYPE":"U","NORAD_CAT_ID":52882,"ELEMENT_SET_NO":999,"REV_AT_EPOCH":20777,"BSTAR":1.945895e-6,"MEAN_MOTION_DOT":-2.57e-6,"MEAN_MOTION_DDOT":0}]
