STARLINK-4267
1 52864U 22062AL  26079.93087719  .00000741  00000+0  64641-4 0  9991
2 52864  53.2185 333.6580 0001224  90.1533 269.9599 15.08837083207628
STARLINK-4274
1 52865U 22062AM  26079.98239524  .00000601  00000+0  55856-4 0  9993
2 52865  53.2184 333.4288 0001290  83.4251 276.6888 15.08833783207636
STARLINK-4272
1 52866U 22062AN  26079.92352014 -.00000323  00000+0 -21714-5 0  9998
2 52866  53.2189 333.6910 0001489  95.0817 265.0345 15.08836052207624
STARLINK-4126
1 52867U 22062AP  26079.97504019  .00000607  00000+0  56231-4 0  9992
2 52867  53.2179 333.4609 0001587  86.6392 273.4782 15.08841463207631
STARLINK-4261
1 52868U 22062AQ  26079.91984185  .00000066  00000+0  22230-4 0  9994
2 52868  53.2195 333.7371 0001408  92.1785 267.9368 15.08837792207626
STARLINK-4266
1 52869U 22062AR  26079.96860021  .00000875  00000+0  73066-4 0  9993
2 52869  53.2191 323.4893 0001394  92.1554 267.9598 15.08838849207760
STARLINK-4207
1 52871U 22062AT  26079.95755966  .00001391  00000+0  10547-3 0  9994
2 52871  53.2181 323.5391 0001274  92.9976 267.1162 15.08828183207768
STARLINK-4213
1 52872U 22062AU  26079.96219168  .00000598  00000+0  55675-4 0  9995
2 52872  53.2185 323.4900 0001698  90.7072 269.4115 15.08838149207767
STARLINK-4211
1 52873U 22062AV  26079.95019733  .00000835  00000+0  70519-4 0  9999
2 52873  53.2181 323.5719 0001336  88.7075 271.4070 15.08842009207765
STARLINK-4193
1 52875U 22062AX  26079.94652415  .00002594  00000+0  18093-3 0  9992
2 52875  53.2180 323.5877 0001292  85.6151 274.4989 15.08854924207764
STARLINK-4200
1 52876U 22062AY  26079.95387838  .00002411  00000+0  16952-3 0  9998
2 52876  53.2182 323.5552 0001276  86.5316 273.5822 15.08841655207765
STARLINK-4214
1 52877U 22062AZ  26079.92076426 -.00000058  00000+0  14459-4 0  9991
2 52877  53.2180 323.7167 0001395  92.1134 268.0018 15.08839455207762
STARLINK-4171
1 52878U 22062BA  26079.94284584  .00000962  00000+0  78537-4 0  9990
2 52878  53.2181 323.6038 0001213  82.1521 277.9608 15.08825063207762
STARLINK-4139
1 52879U 22062BB  26079.97596449  .00000603  00000+0  56006-4 0  9999
2 52879  53.2187 323.4561 0001392  90.2713 269.8439 15.08833522207771
STARLINK-4186
1 52880U 22062BC  26079.91339958  .00001539  00000+0  11477-3 0  9996
2 52880  53.2177 323.7403 0001378  90.3929 269.7221 15.08834924207768
STARLINK-4181
1 52882U 22062BE  26079.93175321 -.00000257  00000+0  19459-5 0  9999
2 52882  53.2179 323.2280 0001562  85.0651 275.0519 15.08844505207775
